BEIDOU-2 M4             
1 38251U 12018B   26191.21022507 -.00000069  00000+0  00000+0 0  9993
2 38251  55.6367 303.3120 0012086 272.7348  87.1429  1.86229687 96370
ARIRANG-3 (KOMPSAT-3)   
1 38338U 12025B   26194.17298609  .00000196  00000+0  48218-4 0  9991
2 38338  98.1183 151.1868 0006335  44.2080 315.9627 14.62228028755142
METOP-B                 
1 38771U 12049A   26194.16385209  .00000050  00000+0  42897-4 0  9996
2 38771  98.6491 245.1430 0001067 267.9479  92.1576 14.21446026716950
SJ-9A                   
1 38860U 12056A   26194.16499197  .00000555  00000+0  69953-4 0  9997
2 38860  97.6727 165.1801 0025796 168.3869 191.7947 14.85526288703442
COSMOS 2484 (RODNIK-S 6)
1 39059U 13001C   26194.14546510  .00000112  00000+0  73470-3 0  9996
2 39059  82.4998 205.7534 0025752 340.1983  19.8095 12.42940557611787
SARAL                   
1 39086U 13009A   26194.15728698  .00000040  00000+0  30656-4 0  9994
2 39086  98.5554  20.3961 0001573 171.9225 188.1985 14.32895462699321
STRAND-1                
1 39090U 13009E   26193.46783720  .00000149  00000+0  64299-4 0  9999
2 39090  98.3932  13.0813 0009262 148.5894 211.5848 14.37177891700690
BRITE-AUSTRIA           
1 39091U 13009F   26193.97923961  .00000089  00000+0  44937-4 0  9999
2 39091  98.4006  12.7781 0010641 156.9749 203.1916 14.36551984700757
GAOFEN-1                
1 39150U 13018A   26194.22134472  .00000033  00000+0  12084-4 0  9992
2 39150  97.9092 265.7586 0016923 177.5201 182.6096 14.76516224712087
NEE-01 PEGASO           
1 39151U 13018B   26193.98892981  .00001057  00000+0  10536-3 0  9997
2 39151  98.1249 338.9978 0013696  80.7615 279.5152 14.93783715714554
PROBA-V                 
1 39159U 13021A   26193.91359826  .00000030  00000+0  30983-4 0  9997
2 39159  98.3604 171.2523 0005320  65.3882 294.7851 14.23603242684777
ARIRANG-5 (KOMPSAT-5)   
1 39227U 13042A   26194.17077382  .00000559  00000+0  44279-4 0  9998
2 39227  97.6211  20.5067 0005602  64.1015 296.0789 15.04523185707763
GONETS-M 5              
1 39249U 13048A   26194.19588883  .00000026  00000+0  11884-3 0  9997
2 39249  82.4846 327.1669 0017274 153.8155 206.3801 12.42892692582116
GONETS-M 7              
1 39251U 13048C   26194.15837370 -.00000054  00000+0 -46203-3 0  9990
2 39251  82.4912 330.1261 0018046 155.1677 205.0275 12.42915295582067
FENGYUN 3C              
1 39260U 13052A   26194.19295324  .00000020  00000+0  31208-4 0  9997
2 39260  98.4997 166.8760 0013760 312.1449  47.8556 14.15760465662247
CASSIOPE                
1 39265U 13055A   26194.12149843  .00023006 -52902-6  24670-3 0  9991
2 39265  80.9124  35.1684 0283348 334.9438  23.8257 15.27330715671623
APRIZESAT 7             
1 39416U 13066A   26194.18262741  .00000445  00000+0  49425-4 0  9992
2 39416  97.7721 147.0313 0037107 123.7441 236.7322 14.91616707685104
ZACUBE-1 (TSHEPISOSAT)  
1 39417U 13066B   26193.93520538  .00001450  00000+0  11530-3 0  9998
2 39417  97.8010 156.3996 0043901 162.4582 197.8170 15.01323430684592
APRIZESAT 8             
1 39425U 13066K   26193.83495382  .00000411  00000+0  50456-4 0  9991
2 39425  97.8228 140.9470 0045293 199.7165 160.2302 14.87694379683488
TRITON-1                
1 39427U 13066M   26194.15952507  .00000701  00000+0  89471-4 0  9997
2 39427  97.8228 103.3738 0090397 148.6807 211.9835 14.81789601677936
